STARLINK-30580          
1 58115U 23161U   26068.55240140 -.00002675  00000+0 -78229-4 0  9999
2 58115  53.1604 165.9333 0001386  87.8627 272.2532 15.30197147134398
TRANSPORTER-11 OBJECT A 
1 60468U 24149A   26068.74646182  .00010774  00000+0  36054-3 0  9993
2 60468  97.3780 149.0949 0003110 191.0010 169.1164 15.31141332 86830
